TIANZHOU-3              
1 49222U 21085A   22206.78720818  .00009080  00000+0  10666-3 0  9996
2 49222  41.4730 343.8869 0003090 198.5390 263.7893 15.61534622 48205
FREGAT DEB              
1 49271U 11037PF  22206.19554947  .00081719  00000+0  44503+0 0  9991
2 49271  51.6316 131.5799 0820069 113.9519 254.9350 11.89550724 51675
BINAR-1                 
1 49272U 98067SR  22206.27729786  .00105875  00000+0  62366-3 0  9995
2 49272  51.6309 127.4620 0004818 102.6831 257.4708 15.77362021 45628
MAYA-3                  
1 49273U 98067SS  22206.73751558  .00667615  22777-3  95192-3 0  9996
2 49273  51.6231 116.1335 0004861 196.3187 163.7669 16.04930426 45810
MAYA-4                  
1 49274U 98067ST  22206.67656671  .00472031  10824-3  86839-3 0  9994
2 49274  51.6260 117.2563 0004017 179.2728 180.8289 16.00660943 45797
CUAVA-1                 
1 49275U 98067SU  22206.82001568  .00252981  00000+0  91668-3 0  9998
2 49275  51.6284 120.2953 0004750 120.6410 343.7526 15.87314835 45719
CAPSAT                  
1 49276U 98067SV  22206.08384866  .00133720  00000+0  70489-3 0  9999
2 49276  51.6347 128.4537 0004991 114.3609 245.7914 15.79729516 44656
PR-CUNAR 2              
1 49277U 98067SW  22206.03057015  .00207318  00000+0  79797-3 0  9994
2 49277  51.6222 125.6847 0005069 118.7584 241.3930 15.86197233 44652
1998-067TD              
1 51441U 98067TD  22206.41607861  .00053023  00000+0  51405-3 0  9990
2 51441  51.6363 137.4524 0006587  36.2832 323.8609 15.65805785 28110
PATCOOL                 
1 51442U 98067TE  22206.32295372  .00052934  00000+0  50537-3 0  9996
2 51442  51.6345 137.5619 0006810  41.4976 318.6535 15.66187934 28067
LIGHT-1                 
1 51509U 98067TG  22206.66614842  .00028465  00000+0  32910-3 0  9991
2 51509  51.6390 138.3898 0007888  25.9550 334.1838 15.61606968 26863
PROGRESS-MS 19          
1 51660U 22014A   22206.36826715  .00008538  00000+0  15673-3 0  9995
2 51660  51.6427 147.4701 0004955  48.1956  28.6743 15.50120579351100
SOYUZ-MS 21             
1 52086U 22028A   22206.36826715  .00008538  00000+0  15673-3 0  9993
2 52086  51.6427 147.4701 0004955  48.1956  28.6743 15.50120579351103
IHI-SAT                 
1 52147U 98067TJ  22206.79361745  .00028597  00000+0  36170-3 0  9993
2 52147  51.6360 140.7191 0005428  73.1575 287.0013 15.59266143 19296
KITSUNE                 
1 52148U 98067TK  22206.74098102  .00029767  00000+0  41929-3 0  9991
2 52148  51.6398 142.4666 0005135  57.3586  23.7057 15.56363098 19203
CREW DRAGON 4           
1 52318U 22042A   22206.36826715  .00008538  00000+0  15673-3 0  9997
2 52318  51.6427 147.4701 0004955  48.1956  28.6743 15.50120579351101
TIANZHOU-4              
1 52509U 22050A   22206.52710080  .00011453  00000+0  13399-3 0  9996
2 52509  41.4730 345.4557 0007237 280.5541 163.4622 15.61415122 70761
PROGRESS-MS 20          
1 52795U 22059A   22206.36826715  .00008538  00000+0  15673-3 0  9994
2 52795  51.6427 147.4701 0004955  48.1956  28.6743 15.50120579351100
SHENZHOU 14             
1 52797U 22060A   22206.52710080  .00011453  00000+0  13399-3 0  9996
2 52797  41.4730 345.4557 0007237 280.5541 163.4622 15.61415122 70760
ISS DEB                 
1 52952U 98067TP  22206.85026618  .00035753  00000+0  57909-3 0  9996
2 52952  51.6411 144.8565 0006082  60.1629 299.9965 15.52426843  3569
DRAGON CRS-25           
1 53113U 22081A   22206.36826715  .00008538  00000+0  15673-3 0  9994
2 53113  51.6427 147.4701 0004955  48.1956  28.6743 15.50120579351105
WENTIAN                 
1 53239U 22085A   22206.52710080  .00011453  00000+0  13399-3 0  9995
2 53239  41.4730 345.4557 0007237 280.5541 163.4622 15.61415122 70762
2022-085B               
1 53240U 22085B   22206.81181506  .01425675  76676-5  52589-3 0  9992
2 53240  41.4820 343.0992 0079236 177.4418 308.0951 16.15733966   243
2022-085C               
1 53241U 22085C   22206.13650785  .03492561  76032-5  79593-3 0  9998
2 53241  41.4884 347.5556 0089143 177.4323 346.5973 16.18722533   110
